#aV2007  2 16  0  0   .00000000      96 DD+AD WGS84 FIT  NGA
## 1414 432000.00000000   900.00000000 54147  .0000000000000
+   30     1  2  3  4  5  6  7  8  9 10 11 12 13 14 16 17 18
+         19 20 21 22 23 24 25 26 27 28 29 30 31  0  0  0  0
+          0  0  0  0  0  0  0  0  0  0  0  0  0  0  0  0  0
+          0  0  0  0  0  0  0  0  0  0  0  0  0  0  0  0  0
+          0  0  0  0  0  0  0  0  0  0  0  0  0  0  0  0  0
++         0  0  0  0  0  0  0  0  0  0  0  0  0  0  0  0  0
++         0  0  0  0  0  0  0  0  0  0  0  0  0  0  0  0  0
++         0  0  0  0  0  0  0  0  0  0  0  0  0  0  0  0  0
++         0  0  0  0  0  0  0  0  0  0  0  0  0  0  0  0  0
++         0  0  0  0  0  0  0  0  0  0  0  0  0  0  0  0  0
%c cc cc ccc ccc cccc cccc cccc cccc ccccc ccccc ccccc ccccc
%c cc cc ccc ccc cccc cccc cccc cccc ccccc ccccc ccccc ccccc
%f  0.0000000  0.000000000  0.00000000000  0.000000000000000
%f  0.0000000  0.000000000  0.00000000000  0.000000000000000
%i    0    0    0    0      0      0      0      0         0
%i    0    0    0    0      0      0      0      0         0
/*      NGA, ST. LOUIS,MO.                                  
/*   EPHEMERIS COMPUTED FROM  3 DAYS OF DATA                
/* CCCCCCCCCCCCCCCCCCCCCCCCCCCCCCCCCCCCCCCCCCCCCCCCCCCCCCCCC
/* CCCCCCCCCCCCCCCCCCCCCCCCCCCCCCCCCCCCCCCCCCCCCCCCCCCCCCCCC
*  2007  2 16  8 15   .00000000                                                 
P  1  13994.084747 -18066.244863 -13278.633715    108.132141                    
V  1  -2980.794032  16996.599335 -25918.449027       .024064                    
P  2 -20501.348735  13601.293612   9435.853460     82.793512                    
V  2 -12800.075291    704.732253 -28385.590416       .033038                    
P  3  11070.746716 -21144.424142  11100.170869     14.566581                    
V  3   1781.727389  14930.277547  26513.360052       .058843                    
P  4 -26046.912256   5279.285966  -3194.093661      4.111397                    
V  4   2956.132825  -3918.084594 -30852.293605       .018659                    
P  5  10339.035852  20591.097393 -13575.659929     36.098184                    
V  5 -14864.504147  -8334.769945 -24226.825821       .059702                    
P  6   8451.301749  19500.572066  16083.062516     31.712265                    
V  6  -6097.125640  19393.467444 -20600.279189       .260628                    
P  7  10993.744608  16241.711215  18214.474206    414.001389                    
V  7  -5466.041236  21975.440329 -16689.170577      -.123665                    
P  8 -23804.210282  -2086.499893  11932.390875    -96.898246                    
V  8  14231.556709  -5461.996880  26742.765228      -.013304                    
P  9  -3353.217322  16620.756940 -20971.376637     57.810646                    
V  9 -24208.637763   7620.778731  10426.740819       .016821                    
P 10  -9005.114871  12023.123428  21780.162624     97.543571                    
V 10 -20274.523568 -19171.659035   2506.691648       .006378                    
P 11   -232.946434 -17702.447152 -19840.725332      7.363494                    
V 11  23350.342288  -9954.351665   8944.061904       .012625                    
P 12   8089.398470  20882.996084 -14205.491475    -50.454476                    
V 12 -14841.540903 -10752.060838 -24032.261953       .033741                    
P 13  -8102.670305 -17031.046310  18628.598001    144.085779                    
V 13   6899.558716 -22749.203843 -17663.481529       .039534                    
P 14  15147.689826  -1873.318043 -21644.505846      8.399726                    
V 14  -6123.299566  26932.023482  -6654.281543       .013622                    
P 16  14310.440891  -6906.003631  21384.720044    122.773352                    
V 16  19203.403801  18884.720640  -6648.524838       .035932                    
P 17 -15641.535189   1054.349579 -21425.064396     78.580064                    
V 17   5580.303771 -26653.725678  -5502.879135      -.014045                    
P 18  20219.132852  17194.485352  -3090.311867   -253.674045                    
V 18    935.995045   4787.736781  31092.187911       .001717                    
P 19   8170.826054 -25196.710930   1078.005314      5.393112                    
V 19   2526.541035   2052.497390  31709.870553       .041237                    
P 20  -9826.371467 -21141.843315 -12861.640478    -22.397788                    
V 20  13603.372553   9067.665234 -25445.804051      -.001994                    
P 21  19449.080632   7449.054670  16888.445079     71.402610                    
V 21 -19876.649513   7324.869494  19216.047415       .009469                    
P 22  21324.444884   7977.806253 -13537.028011    167.755400                    
V 22  10490.966035  14168.435548  24574.530883       .017310                    
P 23  -1673.583506 -24338.492713  10183.921405    150.238773                    
V 23   5218.427463 -12252.311546 -28388.777977       .016708                    
P 24    435.695392  15667.661171  21680.112624     77.786648                    
V 24 -26243.208008   6471.197718  -3889.900557       .031752                    
P 25  19530.202915 -15568.574667   9702.457508    343.244442                    
V 25  11717.121151  -2305.236394 -28298.095942      -.171571                    
P 26  -8030.605795  24831.074535   2340.067613    -45.740674                    
V 26  -1369.303667  -4001.816844  32639.296721      -.185834                    
P 27 -17289.263706  -7839.738724  19326.594274     94.419498                    
V 27  21219.480985  -9198.269703  15522.705484       .020656                    
P 28 -21862.689652 -11460.998939  -9940.145968      7.251724                    
V 28  -7743.350196 -10656.183746  28057.700594      -.008980                    
P 29 -10322.654247  23094.247863   7692.015287    350.365226                    
V 29     62.486243  -9750.271881  30568.168199       .097554                    
P 30  17279.978441  19669.330673  -5112.900264     25.540927                    
V 30  -6627.049982  -1653.923609 -30466.267429       .010152                    
P 31  25468.780110  -7600.752422   -607.209125      8.618016                    
V 31   -127.625372   2954.590744 -31705.372054       .036468                    
EOF
